{
  "norad_id": 42942,
  "name": "ASIASAT 9",
  "history": [
    {
      "epoch": "2026-03-27T15:24:25.272288Z",
      "apogee_km": 35795.752369421345,
      "perigee_km": 35778.392952603914,
      "latitude_deg": -0.009139616558269791,
      "longitude_deg": 122.12413703528429,
      "height_km": 35795.210311333234,
      "semi_major_axis_km": 42165.20966101263,
      "eccentricity": 0.00020585,
      "inclination_deg": 0.0114,
      "raan_deg": 206.7351,
      "arg_perigee_deg": 158.903,
      "mean_anomaly_deg": 172.6394,
      "mean_motion_rev_day": 1.00270081
    }
  ]
}